OBJECT_NAME,OBJECT_ID,EPOCH,MEAN_MOTION,ECCENTRICITY,INCLINATION,RA_OF_ASC_NODE,ARG_OF_PERICENTER,MEAN_ANOMALY,EPHEMERIS_TYPE,CLASSIFICATION_TYPE,NORAD_CAT_ID,ELEMENT_SET_NO,REV_AT_EPOCH,BSTAR,MEAN_MOTION_DOT,MEAN_MOTION_DDOT
COSMOS 2251 DEB,1993-036AZN,2025-02-16T14:41:56.220000,14.63460841,0.0166468,73.9776,15.3371,260.9826,97.247,0,U,36385,999,80712,0.0029136,0.00018469,0.0
COSMOS 2251 DEB,1993-036AZT,2025-02-15T12:27:37.254816,14.36520238,0.0019862,74.0364,107.2317,272.5933,152.3253,0,U,36420,999,80725,0.00024671,7e-06,0.0
COSMOS 2251 DEB,1993-036AZX,2025-02-17T05:52:17.408352,14.84864463,0.0058861,74.1667,359.1466,245.4456,114.0582,0,U,36424,999,79919,0.010489,0.00093151,0.0
COSMOS 2251 DEB,1993-036BAD,2025-02-15T22:05:12.033024,14.2690574,0.0097908,74.0041,292.3793,152.405,208.2345,0,U,36430,999,60279,0.00059741,1.501e-05,0.0
COSMOS 2251 DEB,1993-036BAL,2025-02-16T06:36:55.091232,14.64008433,0.0025648,73.9427,255.6027,188.5815,171.4917,0,U,36437,999,61658,0.0024414,0.00012852,0.0
COSMOS 2251 DEB,1993-036BAN,2025-02-15T00:08:39.000480,13.46897356,0.04297,73.9617,156.3289,187.8896,171.5306,0,U,36439,999,54562,0.002843,3.006e-05,0.0
COSMOS 2251 DEB,1993-036BAQ,2025-02-14T20:24:09.448704,15.00471412,0.012207,73.8344,252.3418,55.9068,305.363,0,U,36441,999,82615,0.00077135,0.00011356,0.0
COSMOS 2251 DEB,1993-036BBA,2025-02-15T23:44:43.162944,14.16742911,0.0186897,73.951,152.4454,39.08,322.3671,0,U,36451,999,79977,0.0015241,3.593e-05,0.0
COSMOS 2251 DEB,1993-036BBC,2025-02-11T04:25:49.101312,14.493721,0.0074908,73.9271,9.3169,337.5853,33.7174,0,U,36453,999,80281,0.002398,9.482e-05,0.0
COSMOS 2251 DEB,1993-036BBJ,2025-02-15T02:21:21.985632,14.23104934,0.0124407,74.0482,181.4992,350.4836,9.3952,0,U,36459,999,3600,0.0027988,6.82e-05,0.0
COSMOS 2251 DEB,1993-036BBV,2025-02-15T12:50:29.609088,14.82908006,0.0041854,73.8545,145.6271,24.499,335.8162,0,U,36470,999,81112,0.0043269,0.00035784,0.0
COSMOS 2251 DEB,1993-036BCN,2025-02-17T01:08:41.514144,14.28962915,0.0085179,74.0199,328.7546,89.5587,271.5322,0,U,36528,999,79881,0.0018543,4.852e-05,0.0
COSMOS 2251 DEB,1993-036BCT,2025-02-16T10:51:12.726432,14.48445963,0.0050206,74.0146,316.934,179.7045,180.4154,0,U,36533,999,80149,0.00077628,2.929e-05,0.0
COSMOS 2251 DEB,1993-036BCZ,2025-02-16T20:35:44.609280,14.56606858,0.0029028,74.0223,264.1497,122.2881,238.11,0,U,36539,999,79591,0.001159,5.171e-05,0.0
COSMOS 2251 DEB,1993-036BDA,2025-02-16T08:36:27.990720,14.54409569,0.0016603,74.032,28.8806,187.7519,172.339,0,U,36540,999,81651,0.0025185,0.00010719,0.0
COSMOS 2251 DEB,1993-036BDL,2025-02-16T15:00:32.691168,14.25924077,0.0078219,74.0468,13.2683,138.307,222.4076,0,U,36550,999,80330,0.001054,2.569e-05,0.0
COSMOS 2251 DEB,1993-036BDM,2025-02-15T08:19:13.058688,14.89734669,0.0061549,73.8886,267.4542,281.4387,77.9884,0,U,36551,999,81932,0.002573,0.00025603,0.0
COSMOS 2251 DEB,1993-036BDT,2025-02-16T13:44:13.286400,14.66839126,0.003225,73.9832,350.8818,212.7601,147.157,0,U,36557,999,29492,0.004281,0.00024146,0.0
COSMOS 2251 DEB,1993-036BDU,2025-02-16T13:38:44.058336,14.52593835,0.0013865,74.0475,359.7587,174.0356,186.0973,0,U,36558,999,80920,0.0017177,7.015e-05,0.0
COSMOS 2251 DEB,1993-036BEC,2025-02-11T16:24:13.783968,14.55580468,0.0018618,74.0246,33.4169,195.949,164.1089,0,U,36614,999,61181,0.0017676,7.706e-05,0.0
COSMOS 2251 DEB,1993-036BEL,2025-02-17T04:04:51.182976,14.7268349,0.0074445,74.0181,9.3085,221.4428,138.1084,0,U,36622,999,79758,0.0012163,8.079e-05,0.0
COSMOS 2251 DEB,1993-036BEQ,2025-02-14T10:12:46.092672,15.59004148,0.004242,73.9994,98.3256,212.2942,147.5679,0,U,36626,999,83168,0.0015173,0.00125053,0.0
COSMOS 2251 DEB,1993-036BEW,2025-02-17T11:14:03.639552,14.41201791,0.0037358,74.0021,126.6758,306.6725,53.0998,0,U,36632,999,79122,0.0015136,4.902e-05,0.0
COSMOS 2251 DEB,1993-036BFE,2025-02-16T06:35:58.688448,14.95721696,0.0107766,74.029,48.8894,210.3903,149.1009,0,U,37084,999,61782,0.00086379,0.00010791,0.0
COSMOS 2251 DEB,1993-036BFF,2025-02-07T13:55:44.182272,15.08381018,0.0048661,73.9732,147.1596,41.4262,319.0601,0,U,37085,999,81423,0.00213,0.0003416,0.0
COSMOS 2251 DEB,1993-036BFK,2025-02-16T02:21:43.341120,14.45513222,0.0153984,74.0437,347.8358,164.3235,196.2773,0,U,37089,999,61769,0.0032622,0.00013317,0.0
COSMOS 2251 DEB,1993-036BFQ,2025-02-17T01:18:29.216448,14.35724587,0.0085872,74.1122,307.8571,352.0834,7.8957,0,U,37094,999,80510,0.0019362,5.813e-05,0.0
COSMOS 2251 DEB,1993-036BFR,2025-02-16T04:27:54.357984,14.01583584,0.0196253,73.849,356.8434,110.8661,251.3608,0,U,37095,999,58436,0.0025806,4.6e-05,0.0
COSMOS 2251 DEB,1993-036BFX,2025-02-15T10:49:24.049920,14.60423645,0.0047211,74.0374,309.5112,115.0462,245.5616,0,U,37101,999,78450,0.0021387,0.00010509,0.0
COSMOS 2251 DEB,1993-036BGE,2025-02-17T07:45:24.917184,14.38333834,0.0097037,74.0435,271.6099,62.5428,298.5552,0,U,37108,999,81361,0.0020947,6.717e-05,0.0
COSMOS 2251 DEB,1993-036BGY,2025-02-16T17:59:34.341792,14.71588905,0.0125118,73.9515,219.6006,168.1006,192.3173,0,U,37126,999,3698,0.00067323,4.7e-05,0.0
COSMOS 2251 DEB,1993-036BHE,2025-02-15T20:52:06.095136,14.72186959,0.0047832,74.0039,101.3859,331.971,27.8886,0,U,37132,999,57994,0.0017635,0.00011305,0.0
COSMOS 2251 DEB,1993-036BHJ,2025-02-17T03:22:35.830272,13.57180912,0.040457,73.9315,102.1712,173.0967,187.5961,0,U,37270,999,73131,0.0039396,4.764e-05,0.0
COSMOS 2251 DEB,1993-036BHU,2025-02-16T04:40:49.806624,14.16869769,0.0138003,74.0304,231.467,69.6892,291.9019,0,U,37280,999,53077,0.0026663,5.848e-05,0.0
COSMOS 2251 DEB,1993-036BHY,2025-02-17T11:06:39.153888,14.10393811,0.0174967,74.0183,323.7422,183.6077,296.3912,0,U,37284,999,76393,0.0018719,3.813e-05,0.0
COSMOS 2251 DEB,1993-036BJK,2025-02-16T05:31:44.784480,14.6272525,0.0047692,74.0081,137.9217,28.1224,332.2503,0,U,37295,999,77921,0.0010423,5.371e-05,0.0
COSMOS 2251 DEB,1993-036BJV,2025-02-16T22:10:32.011104,14.34624363,0.0047406,73.8704,124.1688,145.2209,215.2057,0,U,37305,999,80686,0.0012249,3.481e-05,0.0
COSMOS 2251 DEB,1993-036BKC,2025-02-17T09:33:59.402016,14.44717368,0.0019846,74.0325,40.4789,223.9158,136.0423,0,U,37312,999,81877,0.0011311,3.909e-05,0.0
COSMOS 2251 DEB,1993-036BKG,2025-02-16T19:41:40.992576,14.78935656,0.0042598,74.0236,256.3403,55.9415,304.5793,0,U,37316,999,81702,0.0031708,0.00023801,0.0
COSMOS 2251 DEB,1993-036BKL,2025-02-15T20:06:48.253536,14.73701486,0.0053502,74.0464,85.094,254.2611,105.2657,0,U,37320,999,82040,0.0015131,0.00010087,0.0
COSMOS 2251 DEB,1993-036BKS,2025-02-16T01:19:13.792800,14.59392613,0.0058984,74.0259,187.4376,30.5746,329.8835,0,U,37326,999,81108,0.0011338,5.475e-05,0.0
COSMOS 2251 DEB,1993-036BKT,2025-02-15T03:13:26.260608,15.06625471,0.0012916,74.0071,203.2498,35.6579,324.5471,0,U,37327,999,81668,0.0077575,0.00117103,0.0
COSMOS 2251 DEB,1993-036BKW,2025-02-16T13:06:26.927136,14.5817283,0.0058155,74.019,145.6811,66.1309,294.5935,0,U,37330,999,82117,0.00060257,2.815e-05,0.0
COSMOS 2251 DEB,1993-036BKX,2025-02-09T21:10:48.928800,14.33744322,0.0056975,74.0741,266.6472,358.5895,1.5086,0,U,37331,999,80598,0.0008661,2.425e-05,0.0
COSMOS 2251 DEB,1993-036BLC,2025-02-16T13:35:31.864128,14.32589546,0.0030876,74.0432,157.3129,308.3702,51.4676,0,U,37336,999,60835,0.00015125,3.87e-06,0.0
COSMOS 2251 DEB,1993-036BLG,2025-02-16T12:37:02.627904,14.36448374,0.0019936,74.0242,107.4467,278.6609,81.2285,0,U,37340,999,79770,0.00032926,9.41e-06,0.0
COSMOS 2251 DEB,1993-036BLL,2025-02-17T03:56:09.585312,14.42818679,0.0095423,73.9783,340.0785,255.9052,103.1485,0,U,37483,999,79777,0.00053575,1.859e-05,0.0
COSMOS 2251 DEB,1993-036BLM,2025-02-11T18:53:33.991872,14.39630484,0.0038402,73.8241,58.1001,154.2868,18.2506,0,U,37484,999,61001,0.0011343,3.551e-05,0.0
COSMOS 2251 DEB,1993-036BLP,2025-02-16T22:28:54.768000,14.08710906,0.024532,73.7026,292.9836,204.629,166.9903,0,U,37486,999,59154,0.0033178,7.522e-05,0.0
COSMOS 2251 DEB,1993-036BLQ,2025-02-16T18:22:49.284480,14.65489922,0.0042246,73.916,59.3511,316.3401,43.4427,0,U,37487,999,76842,0.0051819,0.00028534,0.0
COSMOS 2251 DEB,1993-036BLU,2025-02-16T08:14:02.771232,13.74068346,0.0313924,73.9053,55.5512,105.5547,258.0457,0,U,37491,999,51632,0.0011016,1.458e-05,0.0
COSMOS 2251 DEB,1993-036BMC,2025-02-15T00:26:06.114048,14.33970285,0.0029228,74.0383,152.5626,303.1549,56.6799,0,U,37499,999,80838,0.00030941,8.41e-06,0.0
COSMOS 2251 DEB,1993-036BMD,2025-02-16T14:47:24.954720,15.59305105,0.0075973,73.9486,180.3579,61.9774,298.9101,0,U,37500,999,85122,0.00072761,0.00066289,0.0
COSMOS 2251 DEB,1993-036BMU,2025-02-14T22:46:06.986208,14.84213918,0.0044959,74.1303,146.0992,87.4605,273.172,0,U,37515,999,81242,0.0059185,0.00050765,0.0
COSMOS 2251 DEB,1993-036BNH,2025-02-17T00:06:34.291584,14.49152894,0.0021676,74.0403,322.9522,188.2447,171.836,0,U,37528,999,81598,0.00087508,3.313e-05,0.0
COSMOS 2251 DEB,1993-036BNK,2025-02-15T14:03:50.959872,14.33988667,0.0028051,74.0359,163.1227,300.2687,71.1763,0,U,37530,999,80927,0.0004398,1.207e-05,0.0
COSMOS 2251 DEB,1993-036BNM,2025-02-16T06:51:31.679712,14.41721797,0.0016988,74.0497,50.407,233.1607,139.2658,0,U,37532,999,80599,0.00047433,1.524e-05,0.0
COSMOS 2251 DEB,1993-036BNN,2025-02-16T13:49:06.008736,14.10061117,0.0161679,74.0654,358.372,128.7317,232.8404,0,U,37533,999,58701,0.0017974,3.563e-05,0.0
COSMOS 2251 DEB,1993-036BNQ,2025-02-16T17:00:24.280704,14.55717994,0.002962,74.0237,281.9503,134.882,283.4947,0,U,37535,999,80969,0.0011704,5.124e-05,0.0
COSMOS 2251 DEB,1993-036BNS,2025-02-15T20:35:32.950464,14.36928846,0.0053221,74.0106,97.5877,309.0403,50.6019,0,U,37537,999,80725,0.00037204,1.093e-05,0.0
COSMOS 2251 DEB,1993-036BNT,2025-02-15T12:27:00.883872,15.16866881,0.0027245,73.9814,81.4352,299.2642,60.583,0,U,37538,999,78852,0.0063816,0.00129046,0.0
COSMOS 2251 DEB,1993-036BPB,2025-02-15T11:34:32.983680,14.69656202,0.0005371,74.0279,325.394,115.0415,245.1314,0,U,37546,999,80846,0.004491,0.00026808,0.0
